[Satellite]
VERSION=1.1
NAME=DIDO-2
NICKNAME=DIDO-2
TLE1=1 42000U 17008BE  22342.15688765  .00012753  00000+0  42286-3 0  9993
TLE2=2 42000  97.2350  37.1391 0007141  14.3618 345.7825 15.31369302322626
STATUS=0
